CCSDS_OMM_VERS = 2.0
CREATION_DATE  = 
ORIGINATOR     = 

OBJECT_NAME    = STARLINK-36533
OBJECT_ID      = 2026-020AC
CENTER_NAME    = EARTH
REF_FRAME      = TEME
TIME_SYSTEM    = UTC
MEAN_ELEMENT_THEORY = SGP/SGP4

EPOCH          = 2026-02-19T00:46:01.643808
MEAN_MOTION    = 15.76435954
ECCENTRICITY   = .00018216
INCLINATION    = 42.9978
RA_OF_ASC_NODE = 255.3639
ARG_OF_PERICENTER = 246.9232
MEAN_ANOMALY   = 113.1445

EPHEMERIS_TYPE = 0
CLASSIFICATION_TYPE = U
NORAD_CAT_ID   = 67643
ELEMENT_SET_NO = 999
REV_AT_EPOCH   = 314
BSTAR          = .13531376E-2
MEAN_MOTION_DOT = .226545E-2
MEAN_MOTION_DDOT = 0

CCSDS_OMM_VERS = 2.0
CREATION_DATE  = 
ORIGINATOR     = 

OBJECT_NAME    = STARLINK-36623
OBJECT_ID      = 2026-020AD
CENTER_NAME    = EARTH
REF_FRAME      = TEME
TIME_SYSTEM    = UTC
MEAN_ELEMENT_THEORY = SGP/SGP4

EPOCH          = 2026-02-19T06:00:02.000160
MEAN_MOTION    = 15.76354829
ECCENTRICITY   = .00018217
INCLINATION    = 42.9990
RA_OF_ASC_NODE = 253.9450
ARG_OF_PERICENTER = 261.7904
MEAN_ANOMALY   = 294.5592

EPHEMERIS_TYPE = 0
CLASSIFICATION_TYPE = U
NORAD_CAT_ID   = 67644
ELEMENT_SET_NO = 999
REV_AT_EPOCH   = 442
BSTAR          = .82849321E-4
MEAN_MOTION_DOT = .13018E-3
MEAN_MOTION_DDOT = 0

CCSDS_OMM_VERS = 2.0
CREATION_DATE  = 
ORIGINATOR     = 

OBJECT_NAME    = STARLINK-36619
OBJECT_ID      = 2026-020AE
CENTER_NAME    = EARTH
REF_FRAME      = TEME
TIME_SYSTEM    = UTC
MEAN_ELEMENT_THEORY = SGP/SGP4

EPOCH          = 2026-02-19T00:33:24.735744
MEAN_MOTION    = 15.76444627
ECCENTRICITY   = .00022098
INCLINATION    = 42.9969
RA_OF_ASC_NODE = 255.2928
ARG_OF_PERICENTER = 257.7830
MEAN_ANOMALY   = 102.2792

EPHEMERIS_TYPE = 0
CLASSIFICATION_TYPE = U
NORAD_CAT_ID   = 67645
ELEMENT_SET_NO = 999
REV_AT_EPOCH   = 314
BSTAR          = .11313975E-2
MEAN_MOTION_DOT = .188563E-2
MEAN_MOTION_DDOT = 0

CCSDS_OMM_VERS = 2.0
CREATION_DATE  = 
ORIGINATOR     = 

OBJECT_NAME    = ALSAT-3B
OBJECT_ID      = 2026-021A
CENTER_NAME    = EARTH
REF_FRAME      = TEME
TIME_SYSTEM    = UTC
MEAN_ELEMENT_THEORY = SGP/SGP4

EPOCH          = 2026-02-19T06:12:13.643136
MEAN_MOTION    = 15.23657676
ECCENTRICITY   = .00123979
INCLINATION    = 97.4702
RA_OF_ASC_NODE = 124.6748
ARG_OF_PERICENTER = 193.9331
MEAN_ANOMALY   = 166.1566

EPHEMERIS_TYPE = 0
CLASSIFICATION_TYPE = U
NORAD_CAT_ID   = 67646
ELEMENT_SET_NO = 999
REV_AT_EPOCH   = 291
BSTAR          = .26727171E-3
MEAN_MOTION_DOT = .6349E-4
MEAN_MOTION_DDOT = 0

CCSDS_OMM_VERS = 2.0
CREATION_DATE  = 
ORIGINATOR     = 

OBJECT_NAME    = CZ-2C R/B
OBJECT_ID      = 2026-021B
CENTER_NAME    = EARTH
REF_FRAME      = TEME
TIME_SYSTEM    = UTC
MEAN_ELEMENT_THEORY = SGP/SGP4

EPOCH          = 2026-02-19T06:16:53.985216
MEAN_MOTION    = 15.23575973
ECCENTRICITY   = .01533188
INCLINATION    = 97.6542
RA_OF_ASC_NODE = 125.3599
ARG_OF_PERICENTER = 75.3239
MEAN_ANOMALY   = 286.4937

EPHEMERIS_TYPE = 0
CLASSIFICATION_TYPE = U
NORAD_CAT_ID   = 67647
ELEMENT_SET_NO = 999
REV_AT_EPOCH   = 289
BSTAR          = .34062724E-3
MEAN_MOTION_DOT = .11287E-3
MEAN_MOTION_DDOT = 0

CCSDS_OMM_VERS = 2.0
CREATION_DATE  = 
ORIGINATOR     = 

OBJECT_NAME    = STARLINK-36719
OBJECT_ID      = 2026-022A
CENTER_NAME    = EARTH
REF_FRAME      = TEME
TIME_SYSTEM    = UTC
MEAN_ELEMENT_THEORY = SGP/SGP4

EPOCH          = 2026-02-19T05:45:08.852256
MEAN_MOTION    = 15.75214438
ECCENTRICITY   = .00012367
INCLINATION    = 97.2831
RA_OF_ASC_NODE = 83.2936
ARG_OF_PERICENTER = 98.8182
MEAN_ANOMALY   = 261.3224

EPHEMERIS_TYPE = 0
CLASSIFICATION_TYPE = U
NORAD_CAT_ID   = 67648
ELEMENT_SET_NO = 999
REV_AT_EPOCH   = 264
BSTAR          = .66328549E-3
MEAN_MOTION_DOT = .100075E-2
MEAN_MOTION_DDOT = 0

CCSDS_OMM_VERS = 2.0
CREATION_DATE  = 
ORIGINATOR     = 

OBJECT_NAME    = STARLINK-36342
OBJECT_ID      = 2026-022B
CENTER_NAME    = EARTH
REF_FRAME      = TEME
TIME_SYSTEM    = UTC
MEAN_ELEMENT_THEORY = SGP/SGP4

EPOCH          = 2026-02-19T05:44:07.167840
MEAN_MOTION    = 15.75194999
ECCENTRICITY   = .00017054
INCLINATION    = 97.2829
RA_OF_ASC_NODE = 83.2943
ARG_OF_PERICENTER = 107.4748
MEAN_ANOMALY   = 252.6704

EPHEMERIS_TYPE = 0
CLASSIFICATION_TYPE = U
NORAD_CAT_ID   = 67649
ELEMENT_SET_NO = 999
REV_AT_EPOCH   = 264
BSTAR          = .5090182E-3
MEAN_MOTION_DOT = .76495E-3
MEAN_MOTION_DDOT = 0

CCSDS_OMM_VERS = 2.0
CREATION_DATE  = 
ORIGINATOR     = 

OBJECT_NAME    = STARLINK-36703
OBJECT_ID      = 2026-022C
CENTER_NAME    = EARTH
REF_FRAME      = TEME
TIME_SYSTEM    = UTC
MEAN_ELEMENT_THEORY = SGP/SGP4

EPOCH          = 2026-02-19T05:42:35.534592
MEAN_MOTION    = 15.75211889
ECCENTRICITY   = .00012609
INCLINATION    = 97.2831
RA_OF_ASC_NODE = 83.2954
ARG_OF_PERICENTER = 93.5350
MEAN_ANOMALY   = 266.6060

EPHEMERIS_TYPE = 0
CLASSIFICATION_TYPE = U
NORAD_CAT_ID   = 67650
ELEMENT_SET_NO = 999
REV_AT_EPOCH   = 264
BSTAR          = .56478942E-3
MEAN_MOTION_DOT = .85035E-3
MEAN_MOTION_DDOT = 0

CCSDS_OMM_VERS = 2.0
CREATION_DATE  = 
ORIGINATOR     = 

OBJECT_NAME    = STARLINK-36696
OBJECT_ID      = 2026-022D
CENTER_NAME    = EARTH
REF_FRAME      = TEME
TIME_SYSTEM    = UTC
MEAN_ELEMENT_THEORY = SGP/SGP4

EPOCH          = 2026-02-19T05:40:03.173376
MEAN_MOTION    = 15.75196125
ECCENTRICITY   = .00016515
INCLINATION    = 97.2831
RA_OF_ASC_NODE = 83.2984
ARG_OF_PERICENTER = 123.3914
MEAN_ANOMALY   = 236.7510

EPHEMERIS_TYPE = 0
CLASSIFICATION_TYPE = U
NORAD_CAT_ID   = 67651
ELEMENT_SET_NO = 999
REV_AT_EPOCH   = 264
BSTAR          = .57230069E-3
MEAN_MOTION_DOT = .86122E-3
MEAN_MOTION_DDOT = 0

CCSDS_OMM_VERS = 2.0
CREATION_DATE  = 
ORIGINATOR     = 

OBJECT_NAME    = STARLINK-36699
OBJECT_ID      = 2026-022E
CENTER_NAME    = EARTH
REF_FRAME      = TEME
TIME_SYSTEM    = UTC
MEAN_ELEMENT_THEORY = SGP/SGP4

EPOCH          = 2026-02-19T05:39:02.313216
MEAN_MOTION    = 15.75204146
ECCENTRICITY   = .00012489
INCLINATION    = 97.2829
RA_OF_ASC_NODE = 83.2991
ARG_OF_PERICENTER = 103.8944
MEAN_ANOMALY   = 256.2460

EPHEMERIS_TYPE = 0
CLASSIFICATION_TYPE = U
NORAD_CAT_ID   = 67652
ELEMENT_SET_NO = 999
REV_AT_EPOCH   = 264
BSTAR          = .76883974E-3
MEAN_MOTION_DOT = .11619E-2
MEAN_MOTION_DDOT = 0

CCSDS_OMM_VERS = 2.0
CREATION_DATE  = 
ORIGINATOR     = 

OBJECT_NAME    = STARLINK-36694
OBJECT_ID      = 2026-022F
CENTER_NAME    = EARTH
REF_FRAME      = TEME
TIME_SYSTEM    = UTC
MEAN_ELEMENT_THEORY = SGP/SGP4

EPOCH          = 2026-02-19T05:35:58.995744
MEAN_MOTION    = 15.75198950
ECCENTRICITY   = .00015001
INCLINATION    = 97.2830
RA_OF_ASC_NODE = 83.3022
ARG_OF_PERICENTER = 124.4713
MEAN_ANOMALY   = 235.6694

EPHEMERIS_TYPE = 0
CLASSIFICATION_TYPE = U
NORAD_CAT_ID   = 67653
ELEMENT_SET_NO = 999
REV_AT_EPOCH   = 264
BSTAR          = .32304488E-3
MEAN_MOTION_DOT = .48347E-3
MEAN_MOTION_DDOT = 0

CCSDS_OMM_VERS = 2.0
CREATION_DATE  = 
ORIGINATOR     = 

OBJECT_NAME    = STARLINK-36620
OBJECT_ID      = 2026-022G
CENTER_NAME    = EARTH
REF_FRAME      = TEME
TIME_SYSTEM    = UTC
MEAN_ELEMENT_THEORY = SGP/SGP4

EPOCH          = 2026-02-19T05:35:28.633920
MEAN_MOTION    = 15.75195219
ECCENTRICITY   = .00016623
INCLINATION    = 97.2830
RA_OF_ASC_NODE = 83.3020
ARG_OF_PERICENTER = 120.0957
MEAN_ANOMALY   = 240.0473

EPHEMERIS_TYPE = 0
CLASSIFICATION_TYPE = U
NORAD_CAT_ID   = 67654
ELEMENT_SET_NO = 999
REV_AT_EPOCH   = 264
BSTAR          = .38445689E-3
MEAN_MOTION_DOT = .57616E-3
MEAN_MOTION_DDOT = 0

