STARLINK-36533          
1 67643U 26020AC  26050.03196347  .00226545  00000+0  13531-2 0  9990
2 67643  42.9978 255.3639 0001821 246.9232 113.1445 15.76435954  3146
STARLINK-36623          
1 67644U 26020AD  26050.25002315  .00013018  00000+0  82849-4 0  9995
2 67644  42.9990 253.9450 0001821 261.7904 294.5592 15.76354829  4427
STARLINK-36619          
1 67645U 26020AE  26050.02320296  .00188563  00000+0  11314-2 0  9997
2 67645  42.9969 255.2928 0002209 257.7830 102.2792 15.76444627  3144
ALSAT-3B                
1 67646U 26021A   26050.25849124  .00006349  00000+0  26727-3 0  9996
2 67646  97.4702 124.6748 0012397 193.9331 166.1566 15.23657676  2914
CZ-2C R/B               
1 67647U 26021B   26050.26173594  .00011287  00000+0  34063-3 0  9998
2 67647  97.6542 125.3599 0153318  75.3239 286.4937 15.23575973  2894
STARLINK-36719          
1 67648U 26022A   26050.23968579  .00100075  00000+0  66329-3 0  9996
2 67648  97.2831  83.2936 0001236  98.8182 261.3224 15.75214438  2644
STARLINK-36342          
1 67649U 26022B   26050.23897185  .00076495  00000+0  50902-3 0  9999
2 67649  97.2829  83.2943 0001705 107.4748 252.6704 15.75194999  2641
STARLINK-36703          
1 67650U 26022C   26050.23791128  .00085035  00000+0  56479-3 0  9996
2 67650  97.2831  83.2954 0001260  93.5350 266.6060 15.75211889  2646
STARLINK-36696          
1 67651U 26022D   26050.23614784  .00086122  00000+0  57230-3 0  9993
2 67651  97.2831  83.2984 0001651 123.3914 236.7510 15.75196125  2645
STARLINK-36699          
1 67652U 26022E   26050.23544344  .00116190  00000+0  76884-3 0  9993
2 67652  97.2829  83.2991 0001248 103.8944 256.2460 15.75204146  2643
STARLINK-36694          
1 67653U 26022F   26050.23332171  .00048347  00000+0  32304-3 0  9994
2 67653  97.2830  83.3022 0001500 124.4713 235.6694 15.75198950  2641
STARLINK-36620          
1 67654U 26022G   26050.23297030  .00057616  00000+0  38446-3 0  9991
2 67654  97.2830  83.3020 0001662 120.0957 240.0473 15.75195219  2641
